[{"OBJECT_NAME":"STARLINK-4789","OBJECT_ID":"2022-114BC","EPOCH":"2026-03-09T19:42:08.917920","MEAN_MOTION":15.08837621,"ECCENTRICITY":0.00013597,"INCLINATION":53.2161,"RA_OF_ASC_NODE":263.4434,"ARG_OF_PERICENTER":97.8997,"MEAN_ANOMALY":262.215,"EPHEMERIS_TYPE":0,"CLASSIFICATION_TYPE":"U","NORAD_CAT_ID":53868,"ELEMENT_SET_NO":999,"REV_AT_EPOCH":19341,"BSTAR":5.027238e-6,"MEAN_MOTION_DOT":-2.08e-6,"MEAN_MOTION_DDOT":0},{"OBJECT_NAME":"OBJECT R","OBJECT_ID":"2021-022R","EPOCH":"2026-03-09T22:54:37.456416","MEAN_MOTION":15.08912229,"ECCENTRICITY":0.00182027,"INCLINATION":97.3728,"RA_OF_ASC_NODE":308.5333,"ARG_OF_PERICENTER":149.1845,"MEAN_ANOMALY":211.0456,"EPHEMERIS_TYPE":0,"CLASSIFICATION_TYPE":"U","NORAD_CAT_ID":47947,"ELEMENT_SET_NO":999,"REV_AT_EPOCH":27304,"BSTAR":2.1057411e-5,"MEAN_MOTION_DOT":2.72e-6,"MEAN_MOTION_DDOT":0}]
